start=new Date('2022-09-10T00:00:00.000Z').valueOf();
sats=[{"EPOCH":"2022-09-09T18:30:29.288448","CLASSIFICATION_TYPE":"U","PERIAPSIS":"546.357","SITE":"AFETR","REF_FRAME":"TEME","EPHEMERIS_TYPE":"0","LAUNCH_DATE":"2020-08-07","INCLINATION":"53.0544","OBJECT_ID":"2020-055AV","MEAN_ANOMALY":"259.2053","CENTER_NAME":"EARTH","FILE":"3565505","COUNTRY_CODE":"US","ECCENTRICITY":"0.00012400","MEAN_MOTION_DDOT":"0.0000000000000","GP_ID":"212165348","ELEMENT_SET_NO":"999","BSTAR":"0.00007830300000","OBJECT_NAME":"STARLINK-1536","OBJECT_TYPE":"PAYLOAD","APOAPSIS":"548.074","TLE_LINE2":"2 46070  53.0544  68.9357 0001240 100.9076 259.2053 15.06399346116851","PERIOD":"95.592","TLE_LINE1":"1 46070U 20055AV  22252.77117232  .00000885  00000-0  78303-4 0  9998","NORAD_CAT_ID":"46070","MEAN_MOTION_DOT":"0.00000885","SEMIMAJOR_AXIS":"6925.351","REV_AT_EPOCH":"11685","DECAY_DATE":null,"MEAN_ELEMENT_THEORY":"SGP4","MEAN_MOTION":"15.06399346","TIME_SYSTEM":"UTC","RCS_SIZE":"LARGE","RA_OF_ASC_NODE":"68.9357","ARG_OF_PERICENTER":"100.9076"},{"MEAN_ANOMALY":"278.4491","FILE":"3565505","CENTER_NAME":"EARTH","ECCENTRICITY":"0.00013650","COUNTRY_CODE":"US","MEAN_MOTION_DDOT":"0.0000000000000","GP_ID":"212164100","EPOCH":"2022-09-09T18:57:01.864224","CLASSIFICATION_TYPE":"U","PERIAPSIS":"546.277","SITE":"AFETR","REF_FRAME":"TEME","INCLINATION":"53.0550","LAUNCH_DATE":"2020-08-07","EPHEMERIS_TYPE":"0","OBJECT_ID":"2020-055AW","TLE_LINE1":"1 46071U 20055AW  22252.78960491  .00002998  00000-0  22012-3 0  9995","TLE_LINE2":"2 46071  53.0550  68.8413 0001365  81.6652 278.4491 15.06397025116855","PERIOD":"95.592","MEAN_MOTION_DOT":"0.00002998","NORAD_CAT_ID":"46071","REV_AT_EPOCH":"11685","SEMIMAJOR_AXIS":"6925.358","MEAN_ELEMENT_THEORY":"SGP4","DECAY_DATE":null,"MEAN_MOTION":"15.06397025","TIME_SYSTEM":"UTC","ARG_OF_PERICENTER":"81.6652","RA_OF_ASC_NODE":"68.8413","RCS_SIZE":"LARGE","ELEMENT_SET_NO":"999","BSTAR":"0.00022012000000","OBJECT_NAME":"STARLINK-1538","OBJECT_TYPE":"PAYLOAD","APOAPSIS":"548.168"},{"ARG_OF_PERICENTER":"83.8620","RA_OF_ASC_NODE":"68.7473","RCS_SIZE":"LARGE","TIME_SYSTEM":"UTC","MEAN_MOTION":"15.06390216","MEAN_ELEMENT_THEORY":"SGP4","DECAY_DATE":null,"SEMIMAJOR_AXIS":"6925.379","REV_AT_EPOCH":"11684","MEAN_MOTION_DOT":"0.00004238","NORAD_CAT_ID":"46072","TLE_LINE1":"1 46072U 20055AX  22252.81446351  .00004238  00000-0  30334-3 0  9999","TLE_LINE2":"2 46072  53.0555  68.7473 0001314  83.8620 276.2518 15.06390216116849","PERIOD":"95.593","APOAPSIS":"548.154","OBJECT_TYPE":"PAYLOAD","OBJECT_NAME":"STARLINK-1539","BSTAR":"0.00030334000000","ELEMENT_SET_NO":"999","GP_ID":"212164350","MEAN_MOTION_DDOT":"0.0000000000000","ECCENTRICITY":"0.00013140","COUNTRY_CODE":"US","CENTER_NAME":"EARTH","FILE":"3565505","MEAN_ANOMALY":"276.2518","OBJECT_ID":"2020-055AX","EPHEMERIS_TYPE":"0","LAUNCH_DATE":"2020-08-07","INCLINATION":"53.0555","SITE":"AFETR","REF_FRAME":"TEME","PERIAPSIS":"546.334","CLASSIFICATION_TYPE":"U","EPOCH":"2022-09-09T19:32:49.647264"},{"APOAPSIS":"548.187","BSTAR":"0.00013079000000","ELEMENT_SET_NO":"999","OBJECT_NAME":"STARLINK-1542","OBJECT_TYPE":"PAYLOAD","DECAY_DATE":null,"MEAN_ELEMENT_THEORY":"SGP4","MEAN_MOTION":"15.06406678","TIME_SYSTEM":"UTC","RA_OF_ASC_NODE":"68.9663","RCS_SIZE":"LARGE","ARG_OF_PERICENTER":"82.3517","TLE_LINE2":"2 46073  53.0543  68.9663 0001435  82.3517 277.7635 15.06406678116849","PERIOD":"95.592","TLE_LINE1":"1 46073U 20055AY  22252.76379390  .00001667  00000-0  13079-3 0  9992","NORAD_CAT_ID":"46073","MEAN_MOTION_DOT":"0.00001667","SEMIMAJOR_AXIS":"6925.328","REV_AT_EPOCH":"11684","REF_FRAME":"TEME","SITE":"AFETR","LAUNCH_DATE":"2020-08-07","EPHEMERIS_TYPE":"0","INCLINATION":"53.0543","OBJECT_ID":"2020-055AY","EPOCH":"2022-09-09T18:19:51.792960","CLASSIFICATION_TYPE":"U","PERIAPSIS":"546.199","COUNTRY_CODE":"US","ECCENTRICITY":"0.00014350","MEAN_MOTION_DDOT":"0.0000000000000","GP_ID":"212165101","MEAN_ANOMALY":"277.7635","CENTER_NAME":"EARTH","FILE":"3565505"},{"MEAN_ANOMALY":"282.2991","FILE":"3565505","CENTER_NAME":"EARTH","COUNTRY_CODE":"US","ECCENTRICITY":"0.00014730","MEAN_MOTION_DDOT":"0.0000000000000","GP_ID":"212164850","EPOCH":"2022-09-09T19:34:11.697024","CLASSIFICATION_TYPE":"U","PERIAPSIS":"546.176","REF_FRAME":"TEME","SITE":"AFETR","LAUNCH_DATE":"2020-08-07","EPHEMERIS_TYPE":"0","INCLINATION":"53.0552","OBJECT_ID":"2020-055AZ","PERIOD":"95.592","TLE_LINE2":"2 46074  53.0552  68.7218 0001473  77.8163 282.2991 15.06405713116847","TLE_LINE1":"1 46074U 20055AZ  22252.81541316  .00004187  00000-0  29977-3 0  9992","NORAD_CAT_ID":"46074","MEAN_MOTION_DOT":"0.00004187","REV_AT_EPOCH":"11684","SEMIMAJOR_AXIS":"6925.331","DECAY_DATE":null,"MEAN_ELEMENT_THEORY":"SGP4","MEAN_MOTION":"15.06405713","TIME_SYSTEM":"UTC","RCS_SIZE":"LARGE","RA_OF_ASC_NODE":"68.7218","ARG_OF_PERICENTER":"77.8163","BSTAR":"0.00029977000000","ELEMENT_SET_NO":"999","OBJECT_NAME":"STARLINK-1549","OBJECT_TYPE":"PAYLOAD","APOAPSIS":"548.216"},{"GP_ID":"212163601","ECCENTRICITY":"0.00014110","COUNTRY_CODE":"US","MEAN_MOTION_DDOT":"0.0000000000000","CENTER_NAME":"EARTH","FILE":"3565505","MEAN_ANOMALY":"280.3438","OBJECT_ID":"2020-055BA","SITE":"AFETR","REF_FRAME":"TEME","LAUNCH_DATE":"2020-08-07","INCLINATION":"53.0567","EPHEMERIS_TYPE":"0","CLASSIFICATION_TYPE":"U","PERIAPSIS":"546.253","EPOCH":"2022-09-09T18:35:47.967936","TIME_SYSTEM":"UTC","ARG_OF_PERICENTER":"79.7710","RCS_SIZE":"LARGE","RA_OF_ASC_NODE":"68.9030","DECAY_DATE":null,"MEAN_ELEMENT_THEORY":"SGP4","MEAN_MOTION":"15.06394636","MEAN_MOTION_DOT":"0.00001398","NORAD_CAT_ID":"46075","REV_AT_EPOCH":"11684","SEMIMAJOR_AXIS":"6925.365","TLE_LINE1":"1 46075U 20055BA  22252.77486074  .00001398  00000-0  11271-3 0  9996","PERIOD":"95.592","TLE_LINE2":"2 46075  53.0567  68.9030 0001411  79.7710 280.3438 15.06394636116845","APOAPSIS":"548.207","OBJECT_NAME":"STARLINK-1551","OBJECT_TYPE":"PAYLOAD","ELEMENT_SET_NO":"999","BSTAR":"0.00011271000000"},{"MEAN_ANOMALY":"289.9849","CENTER_NAME":"EARTH","FILE":"3565505","MEAN_MOTION_DDOT":"0.0000000000000","COUNTRY_CODE":"US","ECCENTRICITY":"0.00016490","GP_ID":"212163851","EPOCH":"2022-09-09T19:12:58.179168","PERIAPSIS":"546.065","CLASSIFICATION_TYPE":"U","LAUNCH_DATE":"2020-08-07","EPHEMERIS_TYPE":"0","INCLINATION":"53.0557","REF_FRAME":"TEME","SITE":"AFETR","OBJECT_ID":"2020-055BB","PERIOD":"95.592","TLE_LINE2":"2 46076  53.0557  68.8072 0001649  70.1317 289.9849 15.06402170116834","TLE_LINE1":"1 46076U 20055BB  22252.80067337  .00003478  00000-0  25228-3 0  9996","REV_AT_EPOCH":"11683","SEMIMAJOR_AXIS":"6925.342","NORAD_CAT_ID":"46076","MEAN_MOTION_DOT":"0.00003478","MEAN_MOTION":"15.06402170","DECAY_DATE":null,"MEAN_ELEMENT_THEORY":"SGP4","RA_OF_ASC_NODE":"68.8072","RCS_SIZE":"LARGE","ARG_OF_PERICENTER":"70.1317","TIME_SYSTEM":"UTC","BSTAR":"0.00025228000000","ELEMENT_SET_NO":"999","OBJECT_TYPE":"PAYLOAD","OBJECT_NAME":"STARLINK-1552","APOAPSIS":"548.349"},{"MEAN_ANOMALY":"281.4048","CENTER_NAME":"EARTH","FILE":"3565505","MEAN_MOTION_DDOT":"0.0000000000000","COUNTRY_CODE":"US","ECCENTRICITY":"0.00014640","GP_ID":"212164602","EPOCH":"2022-09-09T18:46:25.367520","PERIAPSIS":"546.250","CLASSIFICATION_TYPE":"U","LAUNCH_DATE":"2020-08-07","EPHEMERIS_TYPE":"0","INCLINATION":"53.0553","SITE":"AFETR","REF_FRAME":"TEME","OBJECT_ID":"2020-055BC","PERIOD":"95.593","TLE_LINE2":"2 46077  53.0553  68.8850 0001464  78.7105 281.4048 15.06383715116807","TLE_LINE1":"1 46077U 20055BC  22252.78223805  .00003381  00000-0  24587-3 0  9998","REV_AT_EPOCH":"11680","SEMIMAJOR_AXIS":"6925.398","NORAD_CAT_ID":"46077","MEAN_MOTION_DOT":"0.00003381","MEAN_MOTION":"15.06383715","MEAN_ELEMENT_THEORY":"SGP4","DECAY_DATE":null,"RA_OF_ASC_NODE":"68.8850","RCS_SIZE":"LARGE","ARG_OF_PERICENTER":"78.7105","TIME_SYSTEM":"UTC","BSTAR":"0.00024587000000","ELEMENT_SET_NO":"999","OBJECT_TYPE":"PAYLOAD","OBJECT_NAME":"STARLINK-1559","APOAPSIS":"548.277"},{"SEMIMAJOR_AXIS":"6925.349","REV_AT_EPOCH":"11681","NORAD_CAT_ID":"46078","MEAN_MOTION_DOT":"0.00002074","TLE_LINE2":"2 46078  53.0550  68.9798 0001528  68.1793 291.9358 15.06399898116814","PERIOD":"95.592","TLE_LINE1":"1 46078U 20055BD  22252.76012449  .00002074  00000-0  15810-3 0  9994","RCS_SIZE":"LARGE","RA_OF_ASC_NODE":"68.9798","ARG_OF_PERICENTER":"68.1793","TIME_SYSTEM":"UTC","MEAN_MOTION":"15.06399898","DECAY_DATE":null,"MEAN_ELEMENT_THEORY":"SGP4","OBJECT_TYPE":"PAYLOAD","OBJECT_NAME":"STARLINK-1563","ELEMENT_SET_NO":"999","BSTAR":"0.00015810000000","APOAPSIS":"548.272","FILE":"3565505","CENTER_NAME":"EARTH","MEAN_ANOMALY":"291.9358","GP_ID":"212165349","MEAN_MOTION_DDOT":"0.0000000000000","COUNTRY_CODE":"US","ECCENTRICITY":"0.00015280","PERIAPSIS":"546.156","CLASSIFICATION_TYPE":"U","EPOCH":"2022-09-09T18:14:34.755936","OBJECT_ID":"2020-055BD","LAUNCH_DATE":"2020-08-07","EPHEMERIS_TYPE":"0","INCLINATION":"53.0550","SITE":"AFETR","REF_FRAME":"TEME"},{"BSTAR":"0.00000062010000","ELEMENT_SET_NO":"999","OBJECT_TYPE":"PAYLOAD","OBJECT_NAME":"STARLINK-1566","APOAPSIS":"548.102","TLE_LINE2":"2 46079  53.0554  68.7127 0001256  95.9616 264.1516 15.06393949116856","PERIOD":"95.593","TLE_LINE1":"1 46079U 20055BE  22252.81909320 -.00000272  00000-0  62010-6 0  9990","SEMIMAJOR_AXIS":"6925.367","REV_AT_EPOCH":"11685","NORAD_CAT_ID":"46079","MEAN_MOTION_DOT":"-0.00000272","MEAN_MOTION":"15.06393949","MEAN_ELEMENT_THEORY":"SGP4","DECAY_DATE":null,"RCS_SIZE":"LARGE","RA_OF_ASC_NODE":"68.7127","ARG_OF_PERICENTER":"95.9616","TIME_SYSTEM":"UTC","EPOCH":"2022-09-09T19:39:29.652480","PERIAPSIS":"546.362","CLASSIFICATION_TYPE":"U","INCLINATION":"53.0554","LAUNCH_DATE":"2020-08-07","EPHEMERIS_TYPE":"0","SITE":"AFETR","REF_FRAME":"TEME","OBJECT_ID":"2020-055BE","MEAN_ANOMALY":"264.1516","CENTER_NAME":"EARTH","FILE":"3565505","MEAN_MOTION_DDOT":"0.0000000000000","COUNTRY_CODE":"US","ECCENTRICITY":"0.00012560","GP_ID":"212164101"}];
